{"type": "FeatureCollection", "features": [ {"type": "Feature", "properties": {"norad_id": 66800, "name": "STARLINK-35996", "group": "last-30-days", "lat": -40.94099610132829, "lon": 50.839144439129676, "alt_km": 404.49247607203506, "timestamp": "2025-12-27T18:38:02.204071+00:00", "meta": {"OBJECT_NAME": "STARLINK-35996", "OBJECT_ID": "2025-278K", "EPOCH": "2025-12-27T11:21:29.887776", "MEAN_MOTION": 15.50443615, "ECCENTRICITY": 0.0020749, "INCLINATION": 42.9973, "RA_OF_ASC_NODE": 164.0194, "ARG_OF_PERICENTER": 256.2, "MEAN_ANOMALY": 103.655, "EPHEMERIS_TYPE": 0, "CLASSIFICATION_TYPE": "U", "NORAD_CAT_ID": 66800, "ELEMENT_SET_NO": 999, "REV_AT_EPOCH": 414, "BSTAR": 0.0017357, "MEAN_MOTION_DOT": 0.00103205, "MEAN_MOTION_DDOT": 0}, "tle": {"line1": "1 66800U 25278K   25361.47326259  .00103205  00000+0  17357-2 0  9994", "line2": "2 66800  42.9973 164.0194 0020749 256.2000 103.6550 15.50443615  4141"}}, "geometry": {"type": "Point", "coordinates": [50.839144439129676, -40.94099610132829]}}, {"type": "Feature", "properties": {"norad_id": 66801, "name": "STARLINK-36080", "group": "last-30-days", "lat": -37.53642479453803, "lon": 37.81257526712075, "alt_km": 438.10294616870124, "timestamp": "2025-12-27T18:38:02.204084+00:00", "meta": {"OBJECT_NAME": "STARLINK-36080", "OBJECT_ID": "2025-278L", "EPOCH": "2025-12-27T12:00:02.000160", "MEAN_MOTION": 15.44711377, "ECCENTRICITY": 0.0001314, "INCLINATION": 42.9995, "RA_OF_ASC_NODE": 163.8718, "ARG_OF_PERICENTER": 278.3008, "MEAN_ANOMALY": 226.8067, "EPHEMERIS_TYPE": 0, "CLASSIFICATION_TYPE": "U", "NORAD_CAT_ID": 66801, "ELEMENT_SET_NO": 999, "REV_AT_EPOCH": 533, "BSTAR": -0.048674, "MEAN_MOTION_DOT": -0.02066618, "MEAN_MOTION_DDOT": 0}, "tle": {"line1": "1 66801U 25278L   25361.50002315 -.02066618  00000+0 -48674-1 0  9998", "line2": "2 66801  42.9995 163.8718 0001314 278.3008 226.8067 15.44711377  5334"}}, "geometry": {"type": "Point", "coordinates": [37.81257526712075, -37.53642479453803]}}, {"type": "Feature", "properties": {"norad_id": 66802, "name": "STARLINK-35604", "group": "last-30-days", "lat": -40.483261698855664, "lon": 48.596145058475614, "alt_km": 416.6924370606321, "timestamp": "2025-12-27T18:38:02.204096+00:00", "meta": {"OBJECT_NAME": "STARLINK-35604", "OBJECT_ID": "2025-278M", "EPOCH": "2025-12-27T11:22:03.549216", "MEAN_MOTION": 15.50612071, "ECCENTRICITY": 0.0001968, "INCLINATION": 43.0003, "RA_OF_ASC_NODE": 164.0205, "ARG_OF_PERICENTER": 265.5004, "MEAN_ANOMALY": 94.5632, "EPHEMERIS_TYPE": 0, "CLASSIFICATION_TYPE": "U", "NORAD_CAT_ID": 66802, "ELEMENT_SET_NO": 999, "REV_AT_EPOCH": 414, "BSTAR": 0.0021356, "MEAN_MOTION_DOT": 0.00127151, "MEAN_MOTION_DDOT": 0}, "tle": {"line1": "1 66802U 25278M   25361.47365219  .00127151  00000+0  21356-2 0  9995", "line2": "2 66802  43.0003 164.0205 0001968 265.5004  94.5632 15.50612071  4144"}}, "geometry": {"type": "Point", "coordinates": [48.596145058475614, -40.483261698855664]}}, {"type": "Feature", "properties": {"norad_id": 66803, "name": "STARLINK-35565", "group": "last-30-days", "lat": 13.940734079674733, "lon": -32.97524741969423, "alt_km": 442.3399978460948, "timestamp": "2025-12-27T18:38:02.204106+00:00", "meta": {"OBJECT_NAME": "STARLINK-35565", "OBJECT_ID": "2025-278N", "EPOCH": "2025-12-27T12:00:02.000160", "MEAN_MOTION": 15.40664519, "ECCENTRICITY": 0.0001537, "INCLINATION": 42.9997, "RA_OF_ASC_NODE": 164.0671, "ARG_OF_PERICENTER": 273.9027, "MEAN_ANOMALY": 150.534, "EPHEMERIS_TYPE": 0, "CLASSIFICATION_TYPE": "U", "NORAD_CAT_ID": 66803, "ELEMENT_SET_NO": 999, "REV_AT_EPOCH": 541, "BSTAR": 0.00089674, "MEAN_MOTION_DOT": 0.00037295, "MEAN_MOTION_DDOT": 0}, "tle": {"line1": "1 66803U 25278N   25361.50002315  .00037295  00000+0  89674-3 0  9992", "line2": "2 66803  42.9997 164.0671 0001537 273.9027 150.5340 15.40664519  5415"}}, "geometry": {"type": "Point", "coordinates": [-32.97524741969423, 13.940734079674733]}}, {"type": "Feature", "properties": {"norad_id": 66804, "name": "STARLINK-36038", "group": "last-30-days", "lat": 5.621971478280858, "lon": -23.61904622530923, "alt_km": 443.2135397478896, "timestamp": "2025-12-27T18:38:02.204116+00:00", "meta": {"OBJECT_NAME": "STARLINK-36038", "OBJECT_ID": "2025-278P", "EPOCH": "2025-12-27T12:00:02.000160", "MEAN_MOTION": 15.40658551, "ECCENTRICITY": 0.0001749, "INCLINATION": 42.9998, "RA_OF_ASC_NODE": 164.0379, "ARG_OF_PERICENTER": 265.2471, "MEAN_ANOMALY": 171.6242, "EPHEMERIS_TYPE": 0, "CLASSIFICATION_TYPE": "U", "NORAD_CAT_ID": 66804, "ELEMENT_SET_NO": 999, "REV_AT_EPOCH": 533, "BSTAR": 0.0011193, "MEAN_MOTION_DOT": 0.00046676, "MEAN_MOTION_DDOT": 0}, "tle": {"line1": "1 66804U 25278P   25361.50002315  .00046676  00000+0  11193-2 0  9996", "line2": "2 66804  42.9998 164.0379 0001749 265.2471 171.6242 15.40658551  5339"}}, "geometry": {"type": "Point", "coordinates": [-23.61904622530923, 5.621971478280858]}}, {"type": "Feature", "properties": {"norad_id": 66805, "name": "STARLINK-36049", "group": "last-30-days", "lat": -11.247241252132179, "lon": -5.295200040644463, "alt_km": 444.73617582693714, "timestamp": "2025-12-27T18:38:02.204128+00:00", "meta": {"OBJECT_NAME": "STARLINK-36049", "OBJECT_ID": "2025-278Q", "EPOCH": "2025-12-27T12:00:02.000160", "MEAN_MOTION": 15.40667894, "ECCENTRICITY": 0.0001867, "INCLINATION": 42.9998, "RA_OF_ASC_NODE": 163.9758, "ARG_OF_PERICENTER": 263.8879, "MEAN_ANOMALY": 197.8632, "EPHEMERIS_TYPE": 0, "CLASSIFICATION_TYPE": "U", "NORAD_CAT_ID": 66805, "ELEMENT_SET_NO": 999, "REV_AT_EPOCH": 533, "BSTAR": 0.00088714, "MEAN_MOTION_DOT": 0.00036895, "MEAN_MOTION_DDOT": 0}, "tle": {"line1": "1 66805U 25278Q   25361.50002315  .00036895  00000+0  88714-3 0  9993", "line2": "2 66805  42.9998 163.9758 0001867 263.8879 197.8632 15.40667894  5339"}}, "geometry": {"type": "Point", "coordinates": [-5.295200040644463, -11.247241252132179]}}, {"type": "Feature", "properties": {"norad_id": 66806, "name": "STARLINK-36069", "group": "last-30-days", "lat": -39.70157678317055, "lon": 45.250859429709635, "alt_km": 432.13007141782964, "timestamp": "2025-12-27T18:38:02.204138+00:00", "meta": {"OBJECT_NAME": "STARLINK-36069", "OBJECT_ID": "2025-278R", "EPOCH": "2025-12-27T12:00:02.000160", "MEAN_MOTION": 15.4677256, "ECCENTRICITY": 0.0001167, "INCLINATION": 43.0002, "RA_OF_ASC_NODE": 163.861, "ARG_OF_PERICENTER": 275.1833, "MEAN_ANOMALY": 234.0829, "EPHEMERIS_TYPE": 0, "CLASSIFICATION_TYPE": "U", "NORAD_CAT_ID": 66806, "ELEMENT_SET_NO": 999, "REV_AT_EPOCH": 512, "BSTAR": -0.04527, "MEAN_MOTION_DOT": -0.02064802, "MEAN_MOTION_DDOT": 0}, "tle": {"line1": "1 66806U 25278R   25361.50002315 -.02064802  00000+0 -45270-1 0  9995", "line2": "2 66806  43.0002 163.8610 0001167 275.1833 234.0829 15.46772560  5125"}}, "geometry": {"type": "Point", "coordinates": [45.250859429709635, -39.70157678317055]}}, {"type": "Feature", "properties": {"norad_id": 66807, "name": "STARLINK-36000", "group": "last-30-days", "lat": -42.82222305029458, "lon": 66.21130373550015, "alt_km": 417.144503747033, "timestamp": "2025-12-27T18:38:02.204148+00:00", "meta": {"OBJECT_NAME": "STARLINK-36000", "OBJECT_ID": "2025-278S", "EPOCH": "2025-12-27T00:00:02.999808", "MEAN_MOTION": 15.50562915, "ECCENTRICITY": 0.00016858, "INCLINATION": 42.9998, "RA_OF_ASC_NODE": 166.7573, "ARG_OF_PERICENTER": 270.5806, "MEAN_ANOMALY": 335.9641, "EPHEMERIS_TYPE": 0, "CLASSIFICATION_TYPE": "U", "NORAD_CAT_ID": 66807, "ELEMENT_SET_NO": 999, "REV_AT_EPOCH": 531, "BSTAR": 0.00067280163, "MEAN_MOTION_DOT": 0.00039304, "MEAN_MOTION_DDOT": 0}, "tle": {"line1": "1 66807U 25278S   25361.00003472  .00039304  00000+0  67280-3 0  9998", "line2": "2 66807  42.9998 166.7573 0001685 270.5806 335.9641 15.50562915  5312"}}, "geometry": {"type": "Point", "coordinates": [66.21130373550015, -42.82222305029458]}}, {"type": "Feature", "properties": {"norad_id": 66808, "name": "STARLINK-36071", "group": "last-30-days", "lat": -42.93127600614983, "lon": 68.89094109555961, "alt_km": 416.2304383581795, "timestamp": "2025-12-27T18:38:02.204160+00:00", "meta": {"OBJECT_NAME": "STARLINK-36071", "OBJECT_ID": "2025-278T", "EPOCH": "2025-12-27T11:18:06.451200", "MEAN_MOTION": 15.50641753, "ECCENTRICITY": 0.0002646, "INCLINATION": 42.9997, "RA_OF_ASC_NODE": 163.9979, "ARG_OF_PERICENTER": 273.6851, "MEAN_ANOMALY": 86.3706, "EPHEMERIS_TYPE": 0, "CLASSIFICATION_TYPE": "U", "NORAD_CAT_ID": 66808, "ELEMENT_SET_NO": 999, "REV_AT_EPOCH": 414, "BSTAR": 0.0019906, "MEAN_MOTION_DOT": 0.00118491, "MEAN_MOTION_DDOT": 0}, "tle": {"line1": "1 66808U 25278T   25361.47090800  .00118491  00000+0  19906-2 0  9997", "line2": "2 66808  42.9997 163.9979 0002646 273.6851  86.3706 15.50641753  4140"}}, "geometry": {"type": "Point", "coordinates": [68.89094109555961, -42.93127600614983]}}, {"type": "Feature", "properties": {"norad_id": 66809, "name": "STARLINK-35979", "group": "last-30-days", "lat": -42.89954878590895, "lon": 76.48127372461629, "alt_km": 417.449547025587, "timestamp": "2025-12-27T18:38:02.204170+00:00", "meta": {"OBJECT_NAME": "STARLINK-35979", "OBJECT_ID": "2025-278U", "EPOCH": "2025-12-27T00:00:02.999808", "MEAN_MOTION": 15.5058641, "ECCENTRICITY": 0.00016801, "INCLINATION": 43, "RA_OF_ASC_NODE": 166.7377, "ARG_OF_PERICENTER": 271.8791, "MEAN_ANOMALY": 342.3387, "EPHEMERIS_TYPE": 0, "CLASSIFICATION_TYPE": "U", "NORAD_CAT_ID": 66809, "ELEMENT_SET_NO": 999, "REV_AT_EPOCH": 525, "BSTAR": -0.0008244962, "MEAN_MOTION_DOT": -0.00048426, "MEAN_MOTION_DDOT": 0}, "tle": {"line1": "1 66809U 25278U   25361.00003472 -.00048426  00000+0 -82450-3 0  9993", "line2": "2 66809  43.0000 166.7377 0001680 271.8791 342.3387 15.50586410  5252"}}, "geometry": {"type": "Point", "coordinates": [76.48127372461629, -42.89954878590895]}}]}